ZHUHAI-1 03B            
1 44536U 19060C   24020.79899078  .00048818  00000+0  10558-2 0  9992
2 44536  97.4881 145.5405 0015152 246.3366 113.6292 15.44214039241238
ZHUHAI-1 03C            
1 44537U 19060D   24020.78385899  .00059918  00000+0  11313-2 0  9996
2 44537  97.4822 144.3537 0007311 221.9575 138.1116 15.48225796241251
ZHUHAI-1 03D            
1 44538U 19060E   24020.82147437  .00061153  00000+0  11453-2 0  9995
2 44538  97.4775 143.8579 0005400 220.5370 139.5479 15.48466843241262
ZHUHAI-1 03E            
1 44539U 19060F   24020.81989431  .00054596  00000+0  11399-2 0  9995
2 44539  97.4921 146.1376 0018505 241.2316 118.7074 15.45163723241254
ATLAS 5 CENTAUR DEB     
1 44694U 18079BG  24020.34655537 -.00000095  00000+0  00000+0 0  9991
2 44694  11.8979 112.3726 4811781 157.1299 234.4585  1.77415546 30969
GAOFEN-7                
1 44703U 19072A   24020.81614321  .00008988  00000+0  40422-3 0  9998
2 44703  97.3523  97.9191 0001119 185.5354 174.5870 15.21338178234097
STARLINK-1010           
1 44716U 19074D   24020.46788901  .00015680  00000+0  10688-2 0  9998
2 44716  53.0546  84.6816 0001483 104.4810 255.6344 15.06413603231288
JILIN-1 GAOFEN 2A       
1 44777U 19075A   24020.77153675  .00009870  00000+0  51381-3 0  9994
2 44777  97.6015  85.3739 0006185  95.0354 265.1585 15.16212204230900
NINGXIA-1 1             
1 44779U 19076A   24020.78959912  .00000065  00000+0  12693-3 0  9996
2 44779  45.0059 144.5376 0010464 316.4723  43.5285 14.01791089214595
NINGXIA-1 5             
1 44783U 19076E   24020.80361869  .00000038  00000+0  10921-3 0  9994
2 44783  45.0058 143.8423 0011507 305.4303  54.5456 14.01813310214601
KL-ALPHA A              
1 44785U 19077A   24020.55705812  .00000132  00000+0  17184-3 0  9992
2 44785  88.9190 320.0180 0011874 141.6203 218.5797 13.55894433206661
CARTOSAT-3              
1 44804U 19081A   24020.77934172  .00006675  00000+0  32059-3 0  9992
2 44804  97.5573  78.7663 0011907 342.7563  17.3265 15.19122438230053
FLOCK 4P-7              
1 44816U 19081N   24020.74550501  .03065523  21179-1  29678-2 0  9996
2 44816  97.3026 102.8817 0007249 285.6465  74.4021 16.15562531231736
FLOCK 4P-5              
1 44818U 19081Q   24020.20685217  .00265965  00000+0  18823-2 0  9999
2 44818  97.3280 100.1351 0006080 273.0836  86.9732 15.73188539231506
JILIN-1 GAOFEN 2B       
1 44836U 19086A   24020.81602152  .00009405  00000+0  48915-3 0  9999
2 44836  97.5997  85.9205 0009009 151.6043 208.5682 15.16241489227306
TIANYI-16 (TY-16)       
1 44840U 19087C   24020.77880145  .00151917  00000+0  13880-2 0  9998
2 44840  97.5055 204.9605 0006469 342.4195  17.6840 15.67338993230007
TIANQI-4A               
1 44842U 19087E   24020.79267621  .00139204  00000+0  14243-2 0  9999
2 44842  97.4964 203.0117 0006910 339.5421  20.5560 15.64532361230010
TIANQI-4B               
1 44843U 19087F   24020.74741413  .00042302  00000+0  76421-3 0  9990
2 44843  97.5229 200.6337 0008905   7.5284 352.6099 15.49559560229734
TYVAK-0092              
1 44852U 19089A   24020.56396117  .00040359  00000+0  16819-2 0  9993
2 44852  36.9548 194.0889 0008456  16.6918 343.4108 15.22773785225990
TYVAK-0129              
1 44853U 19089B   24020.77249397  .00041827  00000+0  16699-2 0  9991
2 44853  36.9565 192.0622 0009793  17.6086 342.5002 15.24194336226147
DUCHIFAT-3              
1 44854U 19089C   24020.70712789  .00013856  00000+0  80973-3 0  9993
2 44854  36.9582 226.7074 0009583 313.2610  46.7335 15.11253744225694
ANGELS                  
1 44876U 19092D   24020.46090892  .00008868  00000+0  36459-3 0  9995
2 44876  97.4737 209.0953 0011461 119.5504 240.6877 15.24345447226681
OPS-SAT                 
1 44878U 19092F   24020.78983172  .00084241  00000+0  14315-2 0  9999
2 44878  97.4585 219.5008 0006206  64.9920 295.1976 15.51137698227310
TIANQIN 1 (CAS-6)       
1 44879U 19093A   24020.77144766  .00004783  00000+0  55558-3 0  9996
2 44879  97.8498 102.2466 0015036  82.8425 277.4500 14.85757763221142
ETRSS-1                 
1 44880U 19093B   24020.76162088  .00005213  00000+0  60310-3 0  9995
2 44880  97.8503 102.3272 0015287  84.3887 275.9071 14.85876186221130
TIANYAN 01              
1 44881U 19093C   24020.78285182  .00001783  00000+0  22445-3 0  9994
2 44881  97.8435 100.4058 0015948  88.2353 272.0688 14.83190956221045
TIANYAN 02              
1 44882U 19093D   24020.80633664  .00006440  00000+0  70817-3 0  9991
2 44882  97.8570 104.3687 0015614  81.4928 278.8057 14.87866108221216
CBERS 4A                
1 44883U 19093E   24020.78538288  .00002254  00000+0  29341-3 0  9990
2 44883  97.8457 100.0530 0002669 132.4769 227.6670 14.81602317221012
WEILAI 1R               
1 44884U 19093F   24020.79312009  .00005408  00000+0  60416-3 0  9995
2 44884  97.8495 103.5501 0013712  85.2557 275.0225 14.87310897221234
YUHENG                  
1 44885U 19093G   24020.78377910  .00007043  00000+0  76898-3 0  9995
2 44885  97.8529 104.6914 0014389  85.9787 274.3074 14.88133372221287
