OBJECT_NAME,OBJECT_ID,EPOCH,MEAN_MOTION,ECCENTRICITY,INCLINATION,RA_OF_ASC_NODE,ARG_OF_PERICENTER,MEAN_ANOMALY,EPHEMERIS_TYPE,CLASSIFICATION_TYPE,NORAD_CAT_ID,ELEMENT_SET_NO,REV_AT_EPOCH,BSTAR,MEAN_MOTION_DOT,MEAN_MOTION_DDOT
ZHUHAI-1 03B,2019-060C,2024-01-20T19:10:32.803392,15.44214039,.0015152,97.4881,145.5405,246.3366,113.6292,0,U,44536,999,24123,.10558E-2,.48818E-3,0
ZHUHAI-1 03C,2019-060D,2024-01-20T18:48:45.416736,15.48225796,.0007311,97.4822,144.3537,221.9575,138.1116,0,U,44537,999,24125,.11313E-2,.59918E-3,0
ZHUHAI-1 03D,2019-060E,2024-01-20T19:42:55.385568,15.48466843,.00054,97.4775,143.8579,220.5370,139.5479,0,U,44538,999,24126,.11453E-2,.61153E-3,0
ZHUHAI-1 03E,2019-060F,2024-01-20T19:40:38.868384,15.45163723,.0018505,97.4921,146.1376,241.2316,118.7074,0,U,44539,999,24125,.11399E-2,.54596E-3,0
ATLAS 5 CENTAUR DEB,2018-079BG,2024-01-20T08:19:02.383968,1.77415546,.4811781,11.8979,112.3726,157.1299,234.4585,0,U,44694,999,3096,0,-.95E-6,0
GAOFEN-7,2019-072A,2024-01-20T19:35:14.773344,15.21338178,.0001119,97.3523,97.9191,185.5354,174.5870,0,U,44703,999,23409,.40422E-3,.8988E-4,0
STARLINK-1010,2019-074D,2024-01-20T11:13:45.610464,15.06413603,.0001483,53.0546,84.6816,104.4810,255.6344,0,U,44716,999,23128,.10688E-2,.1568E-3,0
JILIN-1 GAOFEN 2A,2019-075A,2024-01-20T18:31:00.775200,15.16212204,.0006185,97.6015,85.3739,95.0354,265.1585,0,U,44777,999,23090,.51381E-3,.987E-4,0
NINGXIA-1 1,2019-076A,2024-01-20T18:57:01.363968,14.01791089,.0010464,45.0059,144.5376,316.4723,43.5285,0,U,44779,999,21459,.12693E-3,.65E-6,0
NINGXIA-1 5,2019-076E,2024-01-20T19:17:12.654816,14.01813310,.0011507,45.0058,143.8423,305.4303,54.5456,0,U,44783,999,21460,.10921E-3,.38E-6,0
KL-ALPHA A,2019-077A,2024-01-20T13:22:09.821568,13.55894433,.0011874,88.9190,320.0180,141.6203,218.5797,0,U,44785,999,20666,.17184E-3,.132E-5,0
CARTOSAT-3,2019-081A,2024-01-20T18:42:15.124608,15.19122438,.0011907,97.5573,78.7663,342.7563,17.3265,0,U,44804,999,23005,.32059E-3,.6675E-4,0
FLOCK 4P-7,2019-081N,2024-01-20T17:53:31.632864,16.15562531,.0007249,97.3026,102.8817,285.6465,74.4021,0,U,44816,999,23173,.29678E-2,.3065523E-1,.21179E-1
FLOCK 4P-5,2019-081Q,2024-01-20T04:57:52.027488,15.73188539,.000608,97.3280,100.1351,273.0836,86.9732,0,U,44818,999,23150,.18823E-2,.265965E-2,0
JILIN-1 GAOFEN 2B,2019-086A,2024-01-20T19:35:04.259328,15.16241489,.0009009,97.5997,85.9205,151.6043,208.5682,0,U,44836,999,22730,.48915E-3,.9405E-4,0
TIANYI-16 (TY-16),2019-087C,2024-01-20T18:41:28.445280,15.67338993,.0006469,97.5055,204.9605,342.4195,17.6840,0,U,44840,999,23000,.1388E-2,.151917E-2,0
TIANQI-4A,2019-087E,2024-01-20T19:01:27.224544,15.64532361,.000691,97.4964,203.0117,339.5421,20.5560,0,U,44842,999,23001,.14243E-2,.139204E-2,0
TIANQI-4B,2019-087F,2024-01-20T17:56:16.580832,15.49559560,.0008905,97.5229,200.6337,7.5284,352.6099,0,U,44843,999,22973,.76421E-3,.42302E-3,0
TYVAK-0092,2019-089A,2024-01-20T13:32:06.245088,15.22773785,.0008456,36.9548,194.0889,16.6918,343.4108,0,U,44852,999,22599,.16819E-2,.40359E-3,0
TYVAK-0129,2019-089B,2024-01-20T18:32:23.479008,15.24194336,.0009793,36.9565,192.0622,17.6086,342.5002,0,U,44853,999,22614,.16699E-2,.41827E-3,0
DUCHIFAT-3,2019-089C,2024-01-20T16:58:15.849696,15.11253744,.0009583,36.9582,226.7074,313.2610,46.7335,0,U,44854,999,22569,.80973E-3,.13856E-3,0
ANGELS,2019-092D,2024-01-20T11:03:42.530688,15.24345447,.0011461,97.4737,209.0953,119.5504,240.6877,0,U,44876,999,22668,.36459E-3,.8868E-4,0
OPS-SAT,2019-092F,2024-01-20T18:57:21.460608,15.51137698,.0006206,97.4585,219.5008,64.9920,295.1976,0,U,44878,999,22731,.14315E-2,.84241E-3,0
TIANQIN 1 (CAS-6),2019-093A,2024-01-20T18:30:53.077824,14.85757763,.0015036,97.8498,102.2466,82.8425,277.4500,0,U,44879,999,22114,.55558E-3,.4783E-4,0
ETRSS-1,2019-093B,2024-01-20T18:16:44.044032,14.85876186,.0015287,97.8503,102.3272,84.3887,275.9071,0,U,44880,999,22113,.6031E-3,.5213E-4,0
TIANYAN 01,2019-093C,2024-01-20T18:47:18.397248,14.83190956,.0015948,97.8435,100.4058,88.2353,272.0688,0,U,44881,999,22104,.22445E-3,.1783E-4,0
TIANYAN 02,2019-093D,2024-01-20T19:21:07.485696,14.87866108,.0015614,97.8570,104.3687,81.4928,278.8057,0,U,44882,999,22121,.70817E-3,.644E-4,0
CBERS 4A,2019-093E,2024-01-20T18:50:57.080832,14.81602317,.0002669,97.8457,100.0530,132.4769,227.6670,0,U,44883,999,22101,.29341E-3,.2254E-4,0
WEILAI 1R,2019-093F,2024-01-20T19:02:05.575776,14.87310897,.0013712,97.8495,103.5501,85.2557,275.0225,0,U,44884,999,22123,.60416E-3,.5408E-4,0
YUHENG,2019-093G,2024-01-20T18:48:38.514240,14.88133372,.0014389,97.8529,104.6914,85.9787,274.3074,0,U,44885,999,22128,.76898E-3,.7043E-4,0
